{
  "name": "SATGUS",
  "line1": "1 62713U 25009DJ  26065.17070197  .00008756  00000+0  71265-3 0  9995",
  "line2": "2 62713  97.7094 147.4652 0005527 106.7748 253.4082 14.99758417 62117",
  "fetched_at": "2026-03-07T00:23:59.517131+00:00"
}